[{"OBJECT_NAME":"STARLINK-31876","OBJECT_ID":"2024-106S","EPOCH":"2026-03-08T02:51:52.494048","MEAN_MOTION":15.27583006,"ECCENTRICITY":7.171e-5,"INCLINATION":43.0018,"RA_OF_ASC_NODE":341.3059,"ARG_OF_PERICENTER":275.318,"MEAN_ANOMALY":84.759,"EPHEMERIS_TYPE":0,"CLASSIFICATION_TYPE":"U","NORAD_CAT_ID":59938,"ELEMENT_SET_NO":999,"REV_AT_EPOCH":10029,"BSTAR":0.00020707775,"MEAN_MOTION_DOT":5.441e-5,"MEAN_MOTION_DDOT":0},{"OBJECT_NAME":"LUR-1","OBJECT_ID":"2024-149AQ","EPOCH":"2026-03-09T19:05:45.284064","MEAN_MOTION":15.28658648,"ECCENTRICITY":0.00027765,"INCLINATION":97.379,"RA_OF_ASC_NODE":148.4255,"ARG_OF_PERICENTER":309.1571,"MEAN_ANOMALY":50.9421,"EPHEMERIS_TYPE":0,"CLASSIFICATION_TYPE":"U","NORAD_CAT_ID":60506,"ELEMENT_SET_NO":999,"REV_AT_EPOCH":8678,"BSTAR":0.0003298462,"MEAN_MOTION_DOT":9.121e-5,"MEAN_MOTION_DDOT":0}]
